SPACEMOBILE-006         
1 67232U 25309A   26068.97392482  .00002868  00000+0  15459-3 0  9995
2 67232  52.9941  65.8805 0010849 181.4114 178.6851 15.18016184 11526
